[{"OBJECT_NAME":"ONEWEB-0211","OBJECT_ID":"2021-045A","EPOCH":"2025-12-27T07:21:09.173952","MEAN_MOTION":13.1613826,"ECCENTRICITY":0.00015696,"INCLINATION":87.9015,"RA_OF_ASC_NODE":293.416,"ARG_OF_PERICENTER":62.0299,"MEAN_ANOMALY":298.0991,"EPHEMERIS_TYPE":0,"CLASSIFICATION_TYPE":"U","NORAD_CAT_ID":48767,"ELEMENT_SET_NO":999,"REV_AT_EPOCH":22183,"BSTAR":-0.00029499169,"MEAN_MOTION_DOT":-9.9e-7,"MEAN_MOTION_DDOT":0},{"OBJECT_NAME":"ONEWEB-0223","OBJECT_ID":"2021-045B","EPOCH":"2025-12-27T07:17:20.796288","MEAN_MOTION":13.15554366,"ECCENTRICITY":0.00013754,"INCLINATION":87.9027,"RA_OF_ASC_NODE":293.4842,"ARG_OF_PERICENTER":60.5023,"MEAN_ANOMALY":299.6244,"EPHEMERIS_TYPE":0,"CLASSIFICATION_TYPE":"U","NORAD_CAT_ID":48768,"ELEMENT_SET_NO":999,"REV_AT_EPOCH":22180,"BSTAR":0.00089764427,"MEAN_MOTION_DOT":3.51e-6,"MEAN_MOTION_DDOT":0},{"OBJECT_NAME":"ONEWEB-0230","OBJECT_ID":"2021-045C","EPOCH":"2025-12-27T06:36:15.439680","MEAN_MOTION":13.15547354,"ECCENTRICITY":0.00018799,"INCLINATION":87.9004,"RA_OF_ASC_NODE":293.518,"ARG_OF_PERICENTER":79.1364,"MEAN_ANOMALY":280.9978,"EPHEMERIS_TYPE":0,"CLASSIFICATION_TYPE":"U","NORAD_CAT_ID":48769,"ELEMENT_SET_NO":999,"REV_AT_EPOCH":22206,"BSTAR":0.00053401624,"MEAN_MOTION_DOT":2.14e-6,"MEAN_MOTION_DDOT":0},{"OBJECT_NAME":"ONEWEB-0237","OBJECT_ID":"2021-045D","EPOCH":"2025-12-27T06:20:17.391552","MEAN_MOTION":13.15547335,"ECCENTRICITY":0.00018952,"INCLINATION":87.9005,"RA_OF_ASC_NODE":293.5206,"ARG_OF_PERICENTER":67.5273,"MEAN_ANOMALY":292.6058,"EPHEMERIS_TYPE":0,"CLASSIFICATION_TYPE":"U","NORAD_CAT_ID":48770,"ELEMENT_SET_NO":999,"REV_AT_EPOCH":22178,"BSTAR":0.00051650982,"MEAN_MOTION_DOT":2.07e-6,"MEAN_MOTION_DDOT":0},{"OBJECT_NAME":"ONEWEB-0235","OBJECT_ID":"2021-045E","EPOCH":"2025-12-27T05:43:46.671168","MEAN_MOTION":13.15546949,"ECCENTRICITY":0.00018957,"INCLINATION":87.9006,"RA_OF_ASC_NODE":293.497,"ARG_OF_PERICENTER":61.8199,"MEAN_ANOMALY":298.3123,"EPHEMERIS_TYPE":0,"CLASSIFICATION_TYPE":"U","NORAD_CAT_ID":48771,"ELEMENT_SET_NO":999,"REV_AT_EPOCH":22177,"BSTAR":-0.00032923255,"MEAN_MOTION_DOT":-1.11e-6,"MEAN_MOTION_DDOT":0},{"OBJECT_NAME":"ONEWEB-0242","OBJECT_ID":"2021-045F","EPOCH":"2025-12-27T07:24:10.552608","MEAN_MOTION":13.1554745,"ECCENTRICITY":0.00019467,"INCLINATION":87.9016,"RA_OF_ASC_NODE":293.4771,"ARG_OF_PERICENTER":72.2847,"MEAN_ANOMALY":287.8496,"EPHEMERIS_TYPE":0,"CLASSIFICATION_TYPE":"U","NORAD_CAT_ID":48772,"ELEMENT_SET_NO":999,"REV_AT_EPOCH":22182,"BSTAR":-0.00031190313,"MEAN_MOTION_DOT":-1.05e-6,"MEAN_MOTION_DDOT":0},{"OBJECT_NAME":"ONEWEB-0241","OBJECT_ID":"2021-045G","EPOCH":"2025-12-27T05:16:24.436128","MEAN_MOTION":13.15546667,"ECCENTRICITY":0.00016367,"INCLINATION":87.9005,"RA_OF_ASC_NODE":293.5308,"ARG_OF_PERICENTER":61.7995,"MEAN_ANOMALY":298.3301,"EPHEMERIS_TYPE":0,"CLASSIFICATION_TYPE":"U","NORAD_CAT_ID":48773,"ELEMENT_SET_NO":999,"REV_AT_EPOCH":22172,"BSTAR":-0.00012077201,"MEAN_MOTION_DOT":-3.3e-7,"MEAN_MOTION_DDOT":0},{"OBJECT_NAME":"ONEWEB-0243","OBJECT_ID":"2021-045H","EPOCH":"2025-12-27T06:02:02.962752","MEAN_MOTION":13.15548899,"ECCENTRICITY":0.00020385,"INCLINATION":87.9007,"RA_OF_ASC_NODE":293.5351,"ARG_OF_PERICENTER":67.7669,"MEAN_ANOMALY":292.3677,"EPHEMERIS_TYPE":0,"CLASSIFICATION_TYPE":"U","NORAD_CAT_ID":48774,"ELEMENT_SET_NO":999,"REV_AT_EPOCH":22175,"BSTAR":0.00023869702,"MEAN_MOTION_DOT":1.03e-6,"MEAN_MOTION_DDOT":0},{"OBJECT_NAME":"ONEWEB-0222","OBJECT_ID":"2021-045J","EPOCH":"2025-12-27T07:27:36.162144","MEAN_MOTION":13.15549104,"ECCENTRICITY":0.00017842,"INCLINATION":87.9016,"RA_OF_ASC_NODE":293.4771,"ARG_OF_PERICENTER":70.381,"MEAN_ANOMALY":289.7513,"EPHEMERIS_TYPE":0,"CLASSIFICATION_TYPE":"U","NORAD_CAT_ID":48775,"ELEMENT_SET_NO":999,"REV_AT_EPOCH":22180,"BSTAR":-0.00043146865,"MEAN_MOTION_DOT":-1.5e-6,"MEAN_MOTION_DDOT":0},{"OBJECT_NAME":"ONEWEB-0244","OBJECT_ID":"2021-045K","EPOCH":"2025-12-27T06:15:43.110432","MEAN_MOTION":13.15547124,"ECCENTRICITY":0.00018521,"INCLINATION":87.9019,"RA_OF_ASC_NODE":293.4754,"ARG_OF_PERICENTER":71.1451,"MEAN_ANOMALY":288.988,"EPHEMERIS_TYPE":0,"CLASSIFICATION_TYPE":"U","NORAD_CAT_ID":48776,"ELEMENT_SET_NO":999,"REV_AT_EPOCH":22236,"BSTAR":0.00067922597,"MEAN_MOTION_DOT":2.69e-6,"MEAN_MOTION_DDOT":0},{"OBJECT_NAME":"ONEWEB-0247","OBJECT_ID":"2021-045L","EPOCH":"2025-12-27T06:11:11.136192","MEAN_MOTION":13.15550428,"ECCENTRICITY":0.00023682,"INCLINATION":87.9002,"RA_OF_ASC_NODE":293.53,"ARG_OF_PERICENTER":56.3503,"MEAN_ANOMALY":303.7853,"EPHEMERIS_TYPE":0,"CLASSIFICATION_TYPE":"U","NORAD_CAT_ID":48777,"ELEMENT_SET_NO":999,"REV_AT_EPOCH":22180,"BSTAR":0.0011920438,"MEAN_MOTION_DOT":4.62e-6,"MEAN_MOTION_DDOT":0},{"OBJECT_NAME":"ONEWEB-0245","OBJECT_ID":"2021-045M","EPOCH":"2025-12-27T04:14:48.002208","MEAN_MOTION":13.15547245,"ECCENTRICITY":0.00016173,"INCLINATION":87.9005,"RA_OF_ASC_NODE":293.5108,"ARG_OF_PERICENTER":70.4928,"MEAN_ANOMALY":289.6377,"EPHEMERIS_TYPE":0,"CLASSIFICATION_TYPE":"U","NORAD_CAT_ID":48778,"ELEMENT_SET_NO":999,"REV_AT_EPOCH":22176,"BSTAR":0.00030015175,"MEAN_MOTION_DOT":1.26e-6,"MEAN_MOTION_DDOT":0},{"OBJECT_NAME":"ONEWEB-0229","OBJECT_ID":"2021-045N","EPOCH":"2025-12-27T05:57:28.557216","MEAN_MOTION":13.15546939,"ECCENTRICITY":0.00019414,"INCLINATION":87.9005,"RA_OF_ASC_NODE":293.495,"ARG_OF_PERICENTER":73.758,"MEAN_ANOMALY":286.3764,"EPHEMERIS_TYPE":0,"CLASSIFICATION_TYPE":"U","NORAD_CAT_ID":48779,"ELEMENT_SET_NO":999,"REV_AT_EPOCH":22180,"BSTAR":9.1000754e-5,"MEAN_MOTION_DOT":4.7e-7,"MEAN_MOTION_DDOT":0},{"OBJECT_NAME":"ONEWEB-0228","OBJECT_ID":"2021-045P","EPOCH":"2025-12-27T04:56:04.621056","MEAN_MOTION":13.15548729,"ECCENTRICITY":0.00018008,"INCLINATION":87.9015,"RA_OF_ASC_NODE":293.4887,"ARG_OF_PERICENTER":73.6539,"MEAN_ANOMALY":286.4789,"EPHEMERIS_TYPE":0,"CLASSIFICATION_TYPE":"U","NORAD_CAT_ID":48780,"ELEMENT_SET_NO":999,"REV_AT_EPOCH":22171,"BSTAR":0.00014239263,"MEAN_MOTION_DOT":6.6e-7,"MEAN_MOTION_DDOT":0},{"OBJECT_NAME":"ONEWEB-0232","OBJECT_ID":"2021-045Q","EPOCH":"2025-12-27T06:08:53.691936","MEAN_MOTION":13.15549474,"ECCENTRICITY":0.00017935,"INCLINATION":87.9025,"RA_OF_ASC_NODE":293.4723,"ARG_OF_PERICENTER":73.682,"MEAN_ANOMALY":286.4508,"EPHEMERIS_TYPE":0,"CLASSIFICATION_TYPE":"U","NORAD_CAT_ID":48781,"ELEMENT_SET_NO":999,"REV_AT_EPOCH":22204,"BSTAR":0.0003719945,"MEAN_MOTION_DOT":1.53e-6,"MEAN_MOTION_DDOT":0},{"OBJECT_NAME":"ONEWEB-0231","OBJECT_ID":"2021-045R","EPOCH":"2025-12-27T07:26:27.961440","MEAN_MOTION":13.15547808,"ECCENTRICITY":0.00019457,"INCLINATION":87.9002,"RA_OF_ASC_NODE":293.5014,"ARG_OF_PERICENTER":68.2929,"MEAN_ANOMALY":291.8408,"EPHEMERIS_TYPE":0,"CLASSIFICATION_TYPE":"U","NORAD_CAT_ID":48782,"ELEMENT_SET_NO":999,"REV_AT_EPOCH":22174,"BSTAR":-0.0004707368,"MEAN_MOTION_DOT":-1.64e-6,"MEAN_MOTION_DDOT":0}]
