ONEWEB-0211             
1 48767U 21045A   25361.30635618 -.00000099  00000+0 -29499-3 0  9998
2 48767  87.9015 293.4160 0001569  62.0299 298.0991 13.16138260221833
ONEWEB-0223             
1 48768U 21045B   25361.30371292  .00000351  00000+0  89764-3 0  9994
2 48768  87.9027 293.4842 0001375  60.5023 299.6244 13.15554366221800
ONEWEB-0230             
1 48769U 21045C   25361.27517870  .00000214  00000+0  53402-3 0  9993
2 48769  87.9004 293.5180 0001879  79.1364 280.9978 13.15547354222060
ONEWEB-0237             
1 48770U 21045D   25361.26409018  .00000207  00000+0  51651-3 0  9994
2 48770  87.9005 293.5206 0001895  67.5273 292.6058 13.15547335221786
ONEWEB-0235             
1 48771U 21045E   25361.23873462 -.00000111  00000+0 -32923-3 0  9997
2 48771  87.9006 293.4970 0001895  61.8199 298.3123 13.15546949221774
ONEWEB-0242             
1 48772U 21045F   25361.30845547 -.00000105  00000+0 -31190-3 0  9997
2 48772  87.9016 293.4771 0001946  72.2847 287.8496 13.15547450221828
ONEWEB-0241             
1 48773U 21045G   25361.21972727 -.00000033  00000+0 -12077-3 0  9992
2 48773  87.9005 293.5308 0001636  61.7995 298.3301 13.15546667221727
ONEWEB-0243             
1 48774U 21045H   25361.25142318  .00000103  00000+0  23870-3 0  9991
2 48774  87.9007 293.5351 0002038  67.7669 292.3677 13.15548899221751
ONEWEB-0222             
1 48775U 21045J   25361.31083521 -.00000150  00000+0 -43147-3 0  9992
2 48775  87.9016 293.4771 0001784  70.3810 289.7513 13.15549104221807
ONEWEB-0244             
1 48776U 21045K   25361.26091563  .00000269  00000+0  67923-3 0  9999
2 48776  87.9019 293.4754 0001852  71.1451 288.9880 13.15547124222368
ONEWEB-0247             
1 48777U 21045L   25361.25776778  .00000462  00000+0  11920-2 0  9997
2 48777  87.9002 293.5300 0002368  56.3503 303.7853 13.15550428221800
ONEWEB-0245             
1 48778U 21045M   25361.17694447  .00000126  00000+0  30015-3 0  9995
2 48778  87.9005 293.5108 0001617  70.4928 289.6377 13.15547245221765
ONEWEB-0229             
1 48779U 21045N   25361.24824719  .00000047  00000+0  91001-4 0  9996
2 48779  87.9005 293.4950 0001941  73.7580 286.3764 13.15546939221808
ONEWEB-0228             
1 48780U 21045P   25361.20560904  .00000066  00000+0  14239-3 0  9995
2 48780  87.9015 293.4887 0001800  73.6539 286.4789 13.15548729221714
ONEWEB-0232             
1 48781U 21045Q   25361.25617699  .00000153  00000+0  37199-3 0  9992
2 48781  87.9025 293.4723 0001793  73.6820 286.4508 13.15549474222043
ONEWEB-0231             
1 48782U 21045R   25361.31004585 -.00000164  00000+0 -47074-3 0  9991
2 48782  87.9002 293.5014 0001945  68.2929 291.8408 13.15547808221746
